STARLINK-36757          
1 67728U 26026H   26052.50002314 -.01723905  82449-3 -53204-2 0  9991
2 67728  97.2730 106.2816 0001391  82.5100   4.6783 15.91846987  2709
STARLINK-36751          
1 67729U 26026J   26052.50002314 -.01708244  81407-3 -51586-2 0  9995
2 67729  97.2726 106.2856 0001398  80.4503  15.8028 15.92268517  2704
STARLINK-36747          
1 67730U 26026K   26052.50002314 -.01722133  82430-3 -52696-2 0  9990
2 67730  97.2731 106.2836 0001386  77.3904  13.4108 15.92013618  2700
STARLINK-36315          
1 67731U 26026L   26052.50002314 -.01707810  81503-3 -51142-2 0  9991
2 67731  97.2725 106.2874 0001457  87.1354  12.6374 15.92431084  2700
STARLINK-36260          
1 67732U 26026M   26052.50002314 -.01709509  81822-3 -50660-2 0  9997
2 67732  97.2725 106.2890 0001469  73.9740  30.0613 15.92633742  2709
STARLINK-36746          
1 67733U 26026N   26052.50002314 -.01706823  81692-3 -50238-2 0  9990
2 67733  97.2722 106.2905 0001517  78.8535  28.1326 15.92764697  2707
STARLINK-36749          
1 67734U 26026P   26052.50002314 -.01690197  80384-3 -49223-2 0  9996
2 67734  97.2717 106.2921 0001395  87.2693  24.1451 15.92967777  2702
STARLINK-36691          
1 67735U 26026Q   26052.50002314 -.01685622  80456-3 -47632-2 0  9996
2 67735  97.2711 106.2975 0001536  76.3104  46.9128 15.93545719  2846
STARLINK-36317          
1 67736U 26026R   26052.50002314 -.01678151  79560-3 -48131-2 0  9995
2 67736  97.2713 106.2940 0001523  77.2758  40.2314 15.93259772  2702
STARLINK-36330          
1 67737U 26026S   26052.50002314 -.01654432  77839-3 -46351-2 0  9991
2 67737  97.2712 106.2984 0001492  72.6656  54.3548 15.93705999  2703
STARLINK-36327          
1 67738U 26026T   26052.50002314 -.01672252  79606-3 -46259-2 0  9993
2 67738  97.2705 106.3011 0001457  78.2143  53.5662 15.93950831  2707
STARLINK-36329          
1 67739U 26026U   26052.50002314 -.01637405  77631-3 -42178-2 0  9997
2 67739  97.2689 106.3125 0001447  80.3563  79.3239 15.95293892  2709
