CCSDS_OMM_VERS = 2.0
CREATION_DATE  = 
ORIGINATOR     = 

OBJECT_NAME    = STARLINK-36757
OBJECT_ID      = 2026-026H
CENTER_NAME    = EARTH
REF_FRAME      = TEME
TIME_SYSTEM    = UTC
MEAN_ELEMENT_THEORY = SGP/SGP4

EPOCH          = 2026-02-21T12:00:01.999296
MEAN_MOTION    = 15.91846987
ECCENTRICITY   = .0001391
INCLINATION    = 97.2730
RA_OF_ASC_NODE = 106.2816
ARG_OF_PERICENTER = 82.5100
MEAN_ANOMALY   = 4.6783

EPHEMERIS_TYPE = 0
CLASSIFICATION_TYPE = U
NORAD_CAT_ID   = 67728
ELEMENT_SET_NO = 999
REV_AT_EPOCH   = 270
BSTAR          = -.53204E-2
MEAN_MOTION_DOT = -.1723905E-1
MEAN_MOTION_DDOT = .82449E-3

CCSDS_OMM_VERS = 2.0
CREATION_DATE  = 
ORIGINATOR     = 

OBJECT_NAME    = STARLINK-36751
OBJECT_ID      = 2026-026J
CENTER_NAME    = EARTH
REF_FRAME      = TEME
TIME_SYSTEM    = UTC
MEAN_ELEMENT_THEORY = SGP/SGP4

EPOCH          = 2026-02-21T12:00:01.999296
MEAN_MOTION    = 15.92268517
ECCENTRICITY   = .0001398
INCLINATION    = 97.2726
RA_OF_ASC_NODE = 106.2856
ARG_OF_PERICENTER = 80.4503
MEAN_ANOMALY   = 15.8028

EPHEMERIS_TYPE = 0
CLASSIFICATION_TYPE = U
NORAD_CAT_ID   = 67729
ELEMENT_SET_NO = 999
REV_AT_EPOCH   = 270
BSTAR          = -.51586E-2
MEAN_MOTION_DOT = -.1708244E-1
MEAN_MOTION_DDOT = .81407E-3

CCSDS_OMM_VERS = 2.0
CREATION_DATE  = 
ORIGINATOR     = 

OBJECT_NAME    = STARLINK-36747
OBJECT_ID      = 2026-026K
CENTER_NAME    = EARTH
REF_FRAME      = TEME
TIME_SYSTEM    = UTC
MEAN_ELEMENT_THEORY = SGP/SGP4

EPOCH          = 2026-02-21T12:00:01.999296
MEAN_MOTION    = 15.92013618
ECCENTRICITY   = .0001386
INCLINATION    = 97.2731
RA_OF_ASC_NODE = 106.2836
ARG_OF_PERICENTER = 77.3904
MEAN_ANOMALY   = 13.4108

EPHEMERIS_TYPE = 0
CLASSIFICATION_TYPE = U
NORAD_CAT_ID   = 67730
ELEMENT_SET_NO = 999
REV_AT_EPOCH   = 270
BSTAR          = -.52696E-2
MEAN_MOTION_DOT = -.1722133E-1
MEAN_MOTION_DDOT = .8243E-3

CCSDS_OMM_VERS = 2.0
CREATION_DATE  = 
ORIGINATOR     = 

OBJECT_NAME    = STARLINK-36315
OBJECT_ID      = 2026-026L
CENTER_NAME    = EARTH
REF_FRAME      = TEME
TIME_SYSTEM    = UTC
MEAN_ELEMENT_THEORY = SGP/SGP4

EPOCH          = 2026-02-21T12:00:01.999296
MEAN_MOTION    = 15.92431084
ECCENTRICITY   = .0001457
INCLINATION    = 97.2725
RA_OF_ASC_NODE = 106.2874
ARG_OF_PERICENTER = 87.1354
MEAN_ANOMALY   = 12.6374

EPHEMERIS_TYPE = 0
CLASSIFICATION_TYPE = U
NORAD_CAT_ID   = 67731
ELEMENT_SET_NO = 999
REV_AT_EPOCH   = 270
BSTAR          = -.51142E-2
MEAN_MOTION_DOT = -.170781E-1
MEAN_MOTION_DDOT = .81503E-3

CCSDS_OMM_VERS = 2.0
CREATION_DATE  = 
ORIGINATOR     = 

OBJECT_NAME    = STARLINK-36260
OBJECT_ID      = 2026-026M
CENTER_NAME    = EARTH
REF_FRAME      = TEME
TIME_SYSTEM    = UTC
MEAN_ELEMENT_THEORY = SGP/SGP4

EPOCH          = 2026-02-21T12:00:01.999296
MEAN_MOTION    = 15.92633742
ECCENTRICITY   = .0001469
INCLINATION    = 97.2725
RA_OF_ASC_NODE = 106.2890
ARG_OF_PERICENTER = 73.9740
MEAN_ANOMALY   = 30.0613

EPHEMERIS_TYPE = 0
CLASSIFICATION_TYPE = U
NORAD_CAT_ID   = 67732
ELEMENT_SET_NO = 999
REV_AT_EPOCH   = 270
BSTAR          = -.5066E-2
MEAN_MOTION_DOT = -.1709509E-1
MEAN_MOTION_DDOT = .81822E-3

CCSDS_OMM_VERS = 2.0
CREATION_DATE  = 
ORIGINATOR     = 

OBJECT_NAME    = STARLINK-36746
OBJECT_ID      = 2026-026N
CENTER_NAME    = EARTH
REF_FRAME      = TEME
TIME_SYSTEM    = UTC
MEAN_ELEMENT_THEORY = SGP/SGP4

EPOCH          = 2026-02-21T12:00:01.999296
MEAN_MOTION    = 15.92764697
ECCENTRICITY   = .0001517
INCLINATION    = 97.2722
RA_OF_ASC_NODE = 106.2905
ARG_OF_PERICENTER = 78.8535
MEAN_ANOMALY   = 28.1326

EPHEMERIS_TYPE = 0
CLASSIFICATION_TYPE = U
NORAD_CAT_ID   = 67733
ELEMENT_SET_NO = 999
REV_AT_EPOCH   = 270
BSTAR          = -.50238E-2
MEAN_MOTION_DOT = -.1706823E-1
MEAN_MOTION_DDOT = .81692E-3

CCSDS_OMM_VERS = 2.0
CREATION_DATE  = 
ORIGINATOR     = 

OBJECT_NAME    = STARLINK-36749
OBJECT_ID      = 2026-026P
CENTER_NAME    = EARTH
REF_FRAME      = TEME
TIME_SYSTEM    = UTC
MEAN_ELEMENT_THEORY = SGP/SGP4

EPOCH          = 2026-02-21T12:00:01.999296
MEAN_MOTION    = 15.92967777
ECCENTRICITY   = .0001395
INCLINATION    = 97.2717
RA_OF_ASC_NODE = 106.2921
ARG_OF_PERICENTER = 87.2693
MEAN_ANOMALY   = 24.1451

EPHEMERIS_TYPE = 0
CLASSIFICATION_TYPE = U
NORAD_CAT_ID   = 67734
ELEMENT_SET_NO = 999
REV_AT_EPOCH   = 270
BSTAR          = -.49223E-2
MEAN_MOTION_DOT = -.1690197E-1
MEAN_MOTION_DDOT = .80384E-3

CCSDS_OMM_VERS = 2.0
CREATION_DATE  = 
ORIGINATOR     = 

OBJECT_NAME    = STARLINK-36691
OBJECT_ID      = 2026-026Q
CENTER_NAME    = EARTH
REF_FRAME      = TEME
TIME_SYSTEM    = UTC
MEAN_ELEMENT_THEORY = SGP/SGP4

EPOCH          = 2026-02-21T12:00:01.999296
MEAN_MOTION    = 15.93545719
ECCENTRICITY   = .0001536
INCLINATION    = 97.2711
RA_OF_ASC_NODE = 106.2975
ARG_OF_PERICENTER = 76.3104
MEAN_ANOMALY   = 46.9128

EPHEMERIS_TYPE = 0
CLASSIFICATION_TYPE = U
NORAD_CAT_ID   = 67735
ELEMENT_SET_NO = 999
REV_AT_EPOCH   = 284
BSTAR          = -.47632E-2
MEAN_MOTION_DOT = -.1685622E-1
MEAN_MOTION_DDOT = .80456E-3

CCSDS_OMM_VERS = 2.0
CREATION_DATE  = 
ORIGINATOR     = 

OBJECT_NAME    = STARLINK-36317
OBJECT_ID      = 2026-026R
CENTER_NAME    = EARTH
REF_FRAME      = TEME
TIME_SYSTEM    = UTC
MEAN_ELEMENT_THEORY = SGP/SGP4

EPOCH          = 2026-02-21T12:00:01.999296
MEAN_MOTION    = 15.93259772
ECCENTRICITY   = .0001523
INCLINATION    = 97.2713
RA_OF_ASC_NODE = 106.2940
ARG_OF_PERICENTER = 77.2758
MEAN_ANOMALY   = 40.2314

EPHEMERIS_TYPE = 0
CLASSIFICATION_TYPE = U
NORAD_CAT_ID   = 67736
ELEMENT_SET_NO = 999
REV_AT_EPOCH   = 270
BSTAR          = -.48131E-2
MEAN_MOTION_DOT = -.1678151E-1
MEAN_MOTION_DDOT = .7956E-3

CCSDS_OMM_VERS = 2.0
CREATION_DATE  = 
ORIGINATOR     = 

OBJECT_NAME    = STARLINK-36330
OBJECT_ID      = 2026-026S
CENTER_NAME    = EARTH
REF_FRAME      = TEME
TIME_SYSTEM    = UTC
MEAN_ELEMENT_THEORY = SGP/SGP4

EPOCH          = 2026-02-21T12:00:01.999296
MEAN_MOTION    = 15.93705999
ECCENTRICITY   = .0001492
INCLINATION    = 97.2712
RA_OF_ASC_NODE = 106.2984
ARG_OF_PERICENTER = 72.6656
MEAN_ANOMALY   = 54.3548

EPHEMERIS_TYPE = 0
CLASSIFICATION_TYPE = U
NORAD_CAT_ID   = 67737
ELEMENT_SET_NO = 999
REV_AT_EPOCH   = 270
BSTAR          = -.46351E-2
MEAN_MOTION_DOT = -.1654432E-1
MEAN_MOTION_DDOT = .77839E-3

CCSDS_OMM_VERS = 2.0
CREATION_DATE  = 
ORIGINATOR     = 

OBJECT_NAME    = STARLINK-36327
OBJECT_ID      = 2026-026T
CENTER_NAME    = EARTH
REF_FRAME      = TEME
TIME_SYSTEM    = UTC
MEAN_ELEMENT_THEORY = SGP/SGP4

EPOCH          = 2026-02-21T12:00:01.999296
MEAN_MOTION    = 15.93950831
ECCENTRICITY   = .0001457
INCLINATION    = 97.2705
RA_OF_ASC_NODE = 106.3011
ARG_OF_PERICENTER = 78.2143
MEAN_ANOMALY   = 53.5662

EPHEMERIS_TYPE = 0
CLASSIFICATION_TYPE = U
NORAD_CAT_ID   = 67738
ELEMENT_SET_NO = 999
REV_AT_EPOCH   = 270
BSTAR          = -.46259E-2
MEAN_MOTION_DOT = -.1672252E-1
MEAN_MOTION_DDOT = .79606E-3

CCSDS_OMM_VERS = 2.0
CREATION_DATE  = 
ORIGINATOR     = 

OBJECT_NAME    = STARLINK-36329
OBJECT_ID      = 2026-026U
CENTER_NAME    = EARTH
REF_FRAME      = TEME
TIME_SYSTEM    = UTC
MEAN_ELEMENT_THEORY = SGP/SGP4

EPOCH          = 2026-02-21T12:00:01.999296
MEAN_MOTION    = 15.95293892
ECCENTRICITY   = .0001447
INCLINATION    = 97.2689
RA_OF_ASC_NODE = 106.3125
ARG_OF_PERICENTER = 80.3563
MEAN_ANOMALY   = 79.3239

EPHEMERIS_TYPE = 0
CLASSIFICATION_TYPE = U
NORAD_CAT_ID   = 67739
ELEMENT_SET_NO = 999
REV_AT_EPOCH   = 270
BSTAR          = -.42178E-2
MEAN_MOTION_DOT = -.1637405E-1
MEAN_MOTION_DDOT = .77631E-3

